[{"OBJECT_NAME":"UHETSAT","OBJECT_ID":"2023-185E","EPOCH":"2026-03-09T22:39:26.455680","MEAN_MOTION":15.29797662,"ECCENTRICITY":0.00118435,"INCLINATION":97.3584,"RA_OF_ASC_NODE":137.3576,"ARG_OF_PERICENTER":307.7346,"MEAN_ANOMALY":52.2821,"EPHEMERIS_TYPE":0,"CLASSIFICATION_TYPE":"U","NORAD_CAT_ID":58466,"ELEMENT_SET_NO":999,"REV_AT_EPOCH":12611,"BSTAR":0.00030513019,"MEAN_MOTION_DOT":8.749e-5,"MEAN_MOTION_DDOT":0},{"OBJECT_NAME":"STARLINK-31432","OBJECT_ID":"2024-106L","EPOCH":"2026-03-09T21:36:19.774368","MEAN_MOTION":15.27564762,"ECCENTRICITY":0.00017264,"INCLINATION":42.9999,"RA_OF_ASC_NODE":331.4538,"ARG_OF_PERICENTER":253.5759,"MEAN_ANOMALY":106.4903,"EPHEMERIS_TYPE":0,"CLASSIFICATION_TYPE":"U","NORAD_CAT_ID":59932,"ELEMENT_SET_NO":999,"REV_AT_EPOCH":10054,"BSTAR":8.3561477e-5,"MEAN_MOTION_DOT":2.037e-5,"MEAN_MOTION_DDOT":0}]
